NORAD_CAT_ID,OBJECT_NAME,OBJECT_TYPE,EPOCH,MEAN_MOTION,ECCENTRICITY,INCLINATION,RA_OF_ASC_NODE,ARG_OF_PERICENTER,MEAN_ANOMALY,BSTAR,MEAN_MOTION_DOT,MEAN_MOTION_DDOT,TLE_LINE0,TLE_LINE1,TLE_LINE2,SEMIMAJOR_AXIS,PERIOD,APOGEE,PERIGEE,DECAYED
52500.0,STARLINK-3866,PAYLOAD,2022-10-29 14:59:35,15.08834059,0.0001926,53.2167,147.6207,38.7101,321.4028,-2.7402e-05,-7.24e-06,0.0,0 STARLINK-3866,1 52500U 22049BB  22302.62471601 -.00000724  00000-0 -27402-4 0  9999,2 52500  53.2167 147.6207 0001926  38.7101 321.4028 15.08834059 27285,6917.899,95.438,541.096,538.431,0.0
52500.0,STARLINK-3866,PAYLOAD,2022-10-29 21:21:07,15.08835587,0.0001738,53.2171,146.4316,48.1353,311.9788,-2.495e-05,-6.85e-06,0.0,0 STARLINK-3866,1 52500U 22049BB  22302.88967589 -.00000685  00000-0 -24950-4 0  9993,2 52500  53.2171 146.4316 0001738  48.1353 311.9788 15.08835587 27489,6917.894,95.438,540.961,538.557,0.0
52500.0,STARLINK-3866,PAYLOAD,2022-10-30 06:53:26,15.08843381,0.0001781,53.2169,144.6473,45.3465,314.7673,-5.3742e-05,-1.143e-05,0.0,0 STARLINK-3866,1 52500U 22049BB  22303.28711190 -.00001143  00000-0 -53742-4 0  9994,2 52500  53.2169 144.6473 0001781  45.3465 314.7673 15.08843381 27385,6917.87,95.437,540.967,538.503,0.0
52500.0,STARLINK-3866,PAYLOAD,2022-10-30 19:36:31,15.08840482,0.0001662,53.2167,142.2681,47.3477,312.7655,-6.2849e-06,-3.88e-06,0.0,0 STARLINK-3866,1 52500U 22049BB  22303.81703245 -.00000388  00000-0 -62849-5 0  9994,2 52500  53.2167 142.2681 0001662  47.3477 312.7655 15.08840482 27467,6917.879,95.438,540.894,538.594,0.0
52500.0,STARLINK-3866,PAYLOAD,2022-10-31 06:44:13,15.08838605,0.0001805,53.2162,140.1863,44.3082,315.8055,6.163800000000001e-05,6.93e-06,0.0,0 STARLINK-3866,1 52500U 22049BB  22304.28071103  .00000693  00000-0  61638-4 0  9998,2 52500  53.2162 140.1863 0001805  44.3082 315.8055 15.08838605 27539,6917.885,95.438,540.998,538.501,0.0
52500.0,STARLINK-3866,PAYLOAD,2022-10-31 19:27:18,15.08836523,0.0001781999999999,53.2156,137.8071,48.8544,311.2602,7.8092e-05,9.55e-06,0.0,0 STARLINK-3866,1 52500U 22049BB  22304.81063336  .00000955  00000-0  78092-4 0  9999,2 52500  53.2156 137.8071 0001782  48.8544 311.2602 15.08836523 27616,6917.891,95.438,540.989,538.523,0.0
52500.0,STARLINK-3866,PAYLOAD,2022-11-01 06:35:00,15.08842194,0.000199,53.2164,135.7273,47.7557,312.3604,7.6312e-05,9.27e-06,0.0,0 STARLINK-3866,1 52500U 22049BB  22305.27431075  .00000927  00000-0  76312-4 0  9991,2 52500  53.2164 135.7273 0001990  47.7557 312.3604 15.08842194 27681,6917.874,95.437,541.115,538.362,0.0
52500.0,STARLINK-3866,PAYLOAD,2022-11-01 19:18:05,15.08839067,0.0002097,53.216,133.3472,54.8384,305.2805,3.779e-06,-2.28e-06,0.0,0 STARLINK-3866,1 52500U 22049BB  22305.80423525 -.00000228  00000-0  37790-5 0  9994,2 52500  53.2160 133.3472 0002097  54.8384 305.2805 15.08839067 27766,6917.8830000000025,95.438,541.1990000000002,538.298,0.0
52500.0,STARLINK-3866,PAYLOAD,2022-11-01 22:28:52,15.08833407,0.0002019,53.2164,132.7529,51.6248,308.4926,2.7265e-05,1.46e-06,0.0,0 STARLINK-3866,1 52500U 22049BB  22305.93671710  .00000146  00000-0  27265-4 0  9992,2 52500  53.2164 132.7529 0002019  51.6248 308.4926 15.08833407 27945,6917.901,95.438,541.1619999999998,538.369,0.0
52500.0,STARLINK-3866,PAYLOAD,2022-11-02 12:47:20,15.08841696,0.0002065,53.2165,130.077,52.5023,307.6157,4.7059e-05,4.61e-06,0.0,0 STARLINK-3866,1 52500U 22049BB  22306.53287237  .00000461  00000-0  47059-4 0  9999,2 52500  53.2165 130.0770 0002065  52.5023 307.6157 15.08841696 27875,6917.875,95.437,541.169,538.312,0.0
52500.0,STARLINK-3866,PAYLOAD,2022-11-02 19:08:53,15.0884057,0.0002341,53.2152,128.8862,59.9099,300.2125,-4.1352e-05,-9.46e-06,0.0,0 STARLINK-3866,1 52500U 22049BB  22306.79783622 -.00000946  00000-0 -41352-4 0  9996,2 52500  53.2152 128.8862 0002341  59.9099 300.2125 15.08840570 27918,6917.879,95.438,541.363,538.124,0.0
52500.0,STARLINK-3866,PAYLOAD,2022-11-03 07:51:58,15.08833796,0.0001939,53.2159,126.5069,53.5438,306.5733,-3.4037e-05,-8.3e-06,0.0,0 STARLINK-3866,1 52500U 22049BB  22307.32776184 -.00000830  00000-0 -34037-4 0  9995,2 52500  53.2159 126.5069 0001939  53.5438 306.5733 15.08833796 28151,6917.899,95.438,541.106,538.423,0.0
52500.0,STARLINK-3866,PAYLOAD,2022-11-03 14:13:31,15.08834114,0.0001989,53.2159,125.3179,52.3265,307.7908,5.140100000000001e-05,5.3e-06,0.0,0 STARLINK-3866,1 52500U 22049BB  22307.59271999  .00000530  00000-0  51401-4 0  9997,2 52500  53.2159 125.3179 0001989  52.3265 307.7908 15.08834114 28039,6917.898,95.438,541.139,538.387,0.0
52500.0,STARLINK-3866,PAYLOAD,2022-11-04 10:53:30,15.08849741,0.0002027,53.2162,121.4515,52.1487,307.9688,0.00011428,1.532e-05,0.0,0 STARLINK-3866,1 52500U 22049BB  22308.45382824  .00001532  00000-0  11428-3 0  9990,2 52500  53.2162 121.4515 0002027  52.1487 307.9688 15.08849741 28323,6917.851,95.437,541.118,538.313,0.0
52500.0,STARLINK-3866,PAYLOAD,2022-11-04 15:39:40,15.0884119,0.0001845,53.2176,120.5603,36.4825,323.6292,4.9892e-05,5.06e-06,0.0,0 STARLINK-3866,1 52500U 22049BB  22308.65255520  .00000506  00000-0  49892-4 0  9991,2 52500  53.2176 120.5603 0001845  36.4825 323.6292 15.08841190 28353,6917.877,95.437,541.018,538.465,0.0
52500.0,STARLINK-3866,PAYLOAD,2022-11-05 05:58:08,15.08868539,0.0001464,53.2177,117.8839,34.8024,325.3063,-0.00030804,-5.191e-05,0.0,0 STARLINK-3866,1 52500U 22049BB  22309.24870406 -.00005191  00000-0 -30804-3 0  9992,2 52500  53.2177 117.8839 0001464  34.8024 325.3063 15.08868539 28287,6917.793000000002,95.436,540.6709999999998,538.645,0.0
52500.0,STARLINK-3866,PAYLOAD,2022-11-05 13:55:05,15.08836312,0.0001748,53.217,116.3963,47.4869,312.6271,1.6615e-05,-2.4e-07,0.0,0 STARLINK-3866,1 52500U 22049BB  22309.57991985 -.00000024  00000-0  16615-4 0  9998,2 52500  53.2170 116.3963 0001748  47.4869 312.6271 15.08836312 28491,6917.892,95.438,540.966,538.547,0.0
52500.0,STARLINK-3866,PAYLOAD,2022-11-06 05:48:56,15.08844247,0.000191,53.2171,113.4235,48.8376,311.2781,-3.4812e-05,-8.42e-06,0.0,0 STARLINK-3866,1 52500U 22049BB  22310.24231703 -.00000842  00000-0 -34812-4 0  9997,2 52500  53.2171 113.4235 0001910  48.8376 311.2781 15.08844247 28432,6917.8669999999975,95.437,541.054,538.411,0.0
52500.0,STARLINK-3866,PAYLOAD,2022-11-06 20:07:24,15.08840747,0.0002328,53.2176,110.7473,41.2012,318.9155,5.8602e-05,6.44e-06,0.0,0 STARLINK-3866,1 52500U 22049BB  22310.83847543  .00000644  00000-0  58602-4 0  9998,2 52500  53.2176 110.7473 0002328  41.2012 318.9155 15.08840747 28686,6917.878000000002,95.438,541.354,538.133,0.0
52500.0,STARLINK-3866,PAYLOAD,2022-11-07 16:47:24,15.08840179,0.000177,53.2171,106.8805,46.2638,313.85,9.678e-05,1.253e-05,0.0,0 STARLINK-3866,1 52500U 22049BB  22311.69959435  .00001253  00000-0  96780-4 0  9993,2 52500  53.2171 106.8805 0001770  46.2638 313.8500 15.08840179 28659,6917.88,95.438,540.969,538.52,0.0
52500.0,STARLINK-3866,PAYLOAD,2022-11-08 10:16:38,15.0885239,0.0001873,53.217,103.6098,46.6696,313.4452,0.00010419,1.371e-05,0.0,0 STARLINK-3866,1 52500U 22049BB  22312.42822360  .00001371  00000-0  10419-3 0  9996,2 52500  53.2170 103.6098 0001873  46.6696 313.4452 15.08852390 28929,6917.843000000003,95.437,541.003,538.4119999999998,0.0
52500.0,STARLINK-3866,PAYLOAD,2022-11-08 16:38:11,15.0884878,0.0001933,53.217,102.4206,45.8378,314.2773,7.8977e-05,9.69e-06,0.0,0 STARLINK-3866,1 52500U 22049BB  22312.69318633  .00000969  00000-0  78977-4 0  9994,2 52500  53.2170 102.4206 0001933  45.8378 314.2773 15.08848780 28802,6917.854,95.437,541.056,538.381,0.0
52500.0,STARLINK-3866,PAYLOAD,2022-11-09 14:53:36,15.08832998,0.0001846,53.2174,98.2572,47.5872,312.5276,-5.4144e-06,-3.74e-06,0.0,0 STARLINK-3866,1 52500U 22049BB  22313.62055923 -.00000374  00000-0 -54144-5 0  9991,2 52500  53.2174  98.2572 0001846  47.5872 312.5276 15.08832998 28943,6917.901999999999,95.438,541.044,538.49,0.0
52500.0,STARLINK-3866,PAYLOAD,2022-11-09 19:39:45,15.08834407,0.000194,53.2177,97.3657,43.5039,316.6106,-6.0722e-05,-1.254e-05,0.0,0 STARLINK-3866,1 52500U 22049BB  22313.81928030 -.00001254  00000-0 -60722-4 0  9996,2 52500  53.2177  97.3657 0001940  43.5039 316.6106 15.08834407 29132,6917.897,95.438,541.105,538.42,0.0
52500.0,STARLINK-3866,PAYLOAD,2022-11-10 13:09:00,15.08801088,0.0002125,53.2181,94.0953,45.6641,314.4525,0.00044211,6.748e-05,0.0,0 STARLINK-3866,1 52500U 22049BB  22314.54792444  .00006748  00000-0  44211-3 0  9990,2 52500  53.2181  94.0953 0002125  45.6641 314.4525 15.08801088 29082,6917.999,95.44,541.3340000000002,538.394,0.0
52500.0,STARLINK-3866,PAYLOAD,2022-11-10 16:19:45,15.08874631,0.0001822,53.2183,93.5008,61.9466,298.1711,-0.00062078,-0.00010164,0.0,0 STARLINK-3866,1 52500U 22049BB  22314.68039168 -.00010164  00000-0 -62078-3 0  9992,2 52500  53.2183  93.5008 0001822  61.9466 298.1711 15.08874631 29267,6917.775,95.435,540.9,538.379,0.0
52500.0,STARLINK-3866,PAYLOAD,2022-11-11 05:02:51,15.08829682,0.0002098,53.2185,91.1227,38.3879,321.7262,6.358e-05,7.24e-06,0.0,0 STARLINK-3866,1 52500U 22049BB  22315.21032310  .00000724  00000-0  63580-4 0  9993,2 52500  53.2185  91.1227 0002098  38.3879 321.7262 15.08829682 29347,6917.9119999999975,95.438,541.2280000000002,538.326,0.0
52500.0,STARLINK-3866,PAYLOAD,2022-11-11 12:59:47,15.08837122,0.0002079,53.218,89.635,42.1716,317.9436,0.00011825,1.594e-05,0.0,0 STARLINK-3866,1 52500U 22049BB  22315.54151818  .00001594  00000-0  11825-3 0  9994,2 52500  53.2180  89.6350 0002079  42.1716 317.9436 15.08837122 29396,6917.889,95.438,541.192,538.316,0.0
52500.0,STARLINK-3866,PAYLOAD,2022-11-11 14:35:10,15.08836823,0.00023,53.218,89.3376,33.1802,326.9334,0.00015937,2.249e-05,0.0,0 STARLINK-3866,1 52500U 22049BB  22315.60775795  .00002249  00000-0  15937-3 0  9993,2 52500  53.2180  89.3376 0002300  33.1802 326.9334 15.08836823 29242,6917.89,95.438,541.346,538.164,0.0
